NORAD_CAT_ID,OBJECT_NAME,OBJECT_TYPE,EPOCH,MEAN_MOTION,ECCENTRICITY,INCLINATION,RA_OF_ASC_NODE,ARG_OF_PERICENTER,MEAN_ANOMALY,BSTAR,MEAN_MOTION_DOT,MEAN_MOTION_DDOT,TLE_LINE0,TLE_LINE1,TLE_LINE2,SEMIMAJOR_AXIS,PERIOD,APOGEE,PERIGEE,DECAYED
53740.0,STARLINK-4607,PAYLOAD,2023-11-18 12:06:56,15.08835415,0.0001291,53.2178,84.7276,92.4933,267.6207,2.8277e-05,1.62e-06,0.0,0 STARLINK-4607,1 53740U 22107AS  23322.50482365  .00000162  00000-0  28277-4 0  9995,2 53740  53.2178  84.7276 0001291  92.4933 267.6207 15.08835415 66679,6917.894,95.438,540.653,538.866,0.0
53740.0,STARLINK-4607,PAYLOAD,2023-11-18 13:42:19,15.08839114,0.0001305,53.2178,84.4303,92.5231,267.591,5.9727e-05,6.63e-06,0.0,0 STARLINK-4607,1 53740U 22107AS  23322.57106048  .00000663  00000-0  59727-4 0  9993,2 53740  53.2178  84.4303 0001305  92.5231 267.5910 15.08839114 67463,6917.883,95.438,540.651,538.845,0.0
53740.0,STARLINK-4607,PAYLOAD,2023-11-18 18:28:28,15.08842941,0.0001308,53.2179,83.5381,92.4745,267.6397,8.9018e-05,1.129e-05,0.0,0 STARLINK-4607,1 53740U 22107AS  23322.76977721  .00001129  00000-0  89018-4 0  9992,2 53740  53.2179  83.5381 0001308  92.4745 267.6397 15.08842941 66711,6917.871,95.437,540.641,538.832,0.0
53740.0,STARLINK-4607,PAYLOAD,2023-11-18 20:03:51,15.08843566,0.0001304,53.2179,83.2407,92.2787,267.8354,9.1254e-05,1.165e-05,0.0,0 STARLINK-4607,1 53740U 22107AS  23322.83601618  .00001165  00000-0  91254-4 0  9994,2 53740  53.2179  83.2407 0001304  92.2787 267.8354 15.08843566 67504,6917.869,95.437,540.637,538.832,0.0
53740.0,STARLINK-4607,PAYLOAD,2023-11-19 11:57:43,15.08837477,0.0001337,53.2181,80.2671,92.0785,268.0361,3.5514e-05,2.77e-06,0.0,0 STARLINK-4607,1 53740U 22107AS  23323.49842326  .00000277  00000-0  35514-4 0  9990,2 53740  53.2181  80.2671 0001337  92.0785 268.0361 15.08837477 66828,6917.888,95.438,540.678,538.828,0.0
53740.0,STARLINK-4607,PAYLOAD,2023-11-19 15:08:29,15.0884086,0.0001336,53.2181,79.6726,91.7848,268.3297,6.1872e-05,6.97e-06,0.0,0 STARLINK-4607,1 53740U 22107AS  23323.63090036  .00000697  00000-0  61872-4 0  9991,2 53740  53.2181  79.6726 0001336  91.7848 268.3297 15.08840860 67626,6917.878,95.438,540.667,538.819,0.0
53740.0,STARLINK-4607,PAYLOAD,2023-11-19 19:54:38,15.08844047,0.0001325,53.2181,78.7803,90.7847,269.3297,8.3765e-05,1.046e-05,0.0,0 STARLINK-4607,1 53740U 22107AS  23323.82961718  .00001046  00000-0  83765-4 0  9990,2 53740  53.2181  78.7803 0001325  90.7847 269.3297 15.08844047 67653,6917.868,95.437,540.65,538.816,0.0
53740.0,STARLINK-4607,PAYLOAD,2023-11-20 13:23:53,15.088435,0.0001246,53.2184,75.5099,90.0283,270.0852,5.4011e-05,5.72e-06,0.0,0 STARLINK-4607,1 53740U 22107AS  23324.55826050  .00000572  00000-0  54011-4 0  9995,2 53740  53.2184  75.5099 0001246  90.0283 270.0852 15.08843500 67768,6917.87,95.437,540.597,538.873,0.0
53740.0,STARLINK-4607,PAYLOAD,2023-11-20 18:10:02,15.0885002,0.0001322,53.2183,74.6176,91.2577,268.8567,0.0001001,1.306e-05,0.0,0 STARLINK-4607,1 53740U 22107AS  23324.75697475  .00001306  00000-0  10010-3 0  9990,2 53740  53.2183  74.6176 0001322  91.2577 268.8567 15.08850020 67018,6917.85,95.437,540.629,538.8,0.0
53740.0,STARLINK-4607,PAYLOAD,2023-11-20 19:45:25,15.08849708,0.0001315,53.2183,74.3202,91.7651,268.3491,9.6578e-05,1.25e-05,0.0,0 STARLINK-4607,1 53740U 22107AS  23324.82321448  .00001250  00000-0  96578-4 0  9994,2 53740  53.2183  74.3202 0001315  91.7651 268.3491 15.08849708 67804,6917.851,95.437,540.625,538.806,0.0
53740.0,STARLINK-4607,PAYLOAD,2023-11-21 10:03:55,15.08833128,0.0001364,53.2183,71.6439,90.2265,269.8883,1.6536e-05,-2.5e-07,0.0,0 STARLINK-4607,1 53740U 22107AS  23325.41938839 -.00000025  00000-0  16536-4 0  9994,2 53740  53.2183  71.6439 0001364  90.2265 269.8883 15.08833128 67119,6917.901,95.438,540.71,538.823,0.0
53740.0,STARLINK-4607,PAYLOAD,2023-11-21 13:14:41,15.08839634,0.0001372,53.2184,71.0494,86.063,274.0519,7.3462e-05,8.81e-06,0.0,0 STARLINK-4607,1 53740U 22107AS  23325.55186375  .00000881  00000-0  73462-4 0  9999,2 53740  53.2184  71.0494 0001372  86.0630 274.0519 15.08839634 67913,6917.882,95.438,540.696,538.797,0.0
53740.0,STARLINK-4607,PAYLOAD,2023-11-21 16:25:26,15.08847785,0.0001378,53.2184,70.4546,87.0913,273.0236,0.00013463,1.856e-05,0.0,0 STARLINK-4607,1 53740U 22107AS  23325.68433743  .00001856  00000-0  13463-3 0  9994,2 53740  53.2184  70.4546 0001378  87.0913 273.0236 15.08847785 67938,6917.857,95.437,540.675,538.768,0.0
53740.0,STARLINK-4607,PAYLOAD,2023-11-22 13:05:27,15.08848988,0.0001537,53.2177,66.5889,89.0661,271.0507,0.00018528,2.663e-05,0.0,0 STARLINK-4607,1 53740U 22107AS  23326.54545710  .00002663  00000-0  18528-3 0  9992,2 53740  53.2177  66.5889 0001537  89.0661 271.0507 15.08848988 68065,6917.853,95.437,540.781,538.655,0.0
53740.0,STARLINK-4607,PAYLOAD,2023-11-23 11:20:51,15.08840598,0.0001413,53.2184,62.4266,89.0104,271.105,8.8778e-05,1.125e-05,0.0,0 STARLINK-4607,1 53740U 22107AS  23327.47282077  .00001125  00000-0  88778-4 0  9996,2 53740  53.2184  62.4266 0001413  89.0104 271.1050 15.08840598 67424,6917.879,95.438,540.721,538.766,0.0
53740.0,STARLINK-4607,PAYLOAD,2023-11-23 12:56:14,15.08842556,0.0001521,53.2183,62.1291,92.399,267.7177,1.9262e-05,1.9e-07,0.0,0 STARLINK-4607,1 53740U 22107AS  23327.53905974  .00000019  00000-0  19262-4 0  9994,2 53740  53.2183  62.1291 0001521  92.3990 267.7177 15.08842556 68213,6917.873,95.437,540.79,538.685,0.0
53740.0,STARLINK-4607,PAYLOAD,2023-11-24 11:11:39,15.08837229,0.0001687,53.2193,57.9671,87.8385,272.2801,-8.1254e-05,-1.581e-05,0.0,0 STARLINK-4607,1 53740U 22107AS  23328.46643005 -.00001581  00000-0 -81254-4 0  9998,2 53740  53.2193  57.9671 0001687  87.8385 272.2801 15.08837229 67572,6917.889,95.438,540.921,538.587,0.0
53740.0,STARLINK-4607,PAYLOAD,2023-11-24 12:47:02,15.08837919,0.0001708,53.2191,57.6696,89.413,270.7058,-6.9349e-05,-1.392e-05,0.0,0 STARLINK-4607,1 53740U 22107AS  23328.53266929 -.00001392  00000-0 -69349-4 0  9993,2 53740  53.2191  57.6696 0001708  89.4130 270.7058 15.08837919 68365,6917.887,95.438,540.933,538.57,0.0
53740.0,STARLINK-4607,PAYLOAD,2023-11-24 15:57:48,15.0884636,0.0001585,53.2197,57.0747,89.1349,270.9825,-9.6888e-06,-4.42e-06,0.0,0 STARLINK-4607,1 53740U 22107AS  23328.66514157 -.00000442  00000-0 -96888-5 0  9990,2 53740  53.2197  57.0747 0001585  89.1349 270.9825 15.08846360 67604,6917.861,95.437,540.822,538.629,0.0
53740.0,STARLINK-4607,PAYLOAD,2023-11-25 12:37:48,15.08852813,0.00015,53.218,53.2087,76.7528,283.3631,0.00024494,3.614e-05,0.0,0 STARLINK-4607,1 53740U 22107AS  23329.52625561  .00003614  00000-0  24494-3 0  9992,2 53740  53.2180  53.2087 0001500  76.7528 283.3631 15.08852813 68513,6917.841,95.437,540.744,538.669,0.0
53740.0,STARLINK-4607,PAYLOAD,2023-11-25 15:48:34,15.08857405,0.0001451,53.218,52.6132,82.3416,277.7741,0.00026977,4.01e-05,0.0,0 STARLINK-4607,1 53740U 22107AS  23329.65873084  .00004010  00000-0  26977-3 0  9990,2 53740  53.2180  52.6132 0001451  82.3416 277.7741 15.08857405 68534,6917.827,95.436,540.696,538.688,0.0
53740.0,STARLINK-4607,PAYLOAD,2023-11-26 10:53:12,15.08844804,0.0001776,53.2188,49.0456,64.2053,295.9122,0.00014988,2.098e-05,0.0,0 STARLINK-4607,1 53740U 22107AS  23330.45362087  .00002098  00000-0  14988-3 0  9999,2 53740  53.2188  49.0456 0001776  64.2053 295.9122 15.08844804 67877,6917.866,95.437,540.959,538.502,0.0
53740.0,STARLINK-4607,PAYLOAD,2023-11-26 12:28:34,15.08861677,0.0001451,53.2186,48.7469,78.9302,281.1853,0.00026897,3.998e-05,0.0,0 STARLINK-4607,1 53740U 22107AS  23330.51984620  .00003998  00000-0  26897-3 0  9991,2 53740  53.2186  48.7469 0001451  78.9302 281.1853 15.08861677 68667,6917.814,95.436,540.683,538.675,0.0
53740.0,STARLINK-4607,PAYLOAD,2023-11-27 04:22:29,15.08822032,0.0001561,53.2195,45.7716,86.3535,273.7636,-6.6888e-05,-1.352e-05,0.0,0 STARLINK-4607,1 53740U 22107AS  23331.18228311 -.00001352  00000-0 -66888-4 0  9992,2 53740  53.2195  45.7716 0001561  86.3535 273.7636 15.08822032 67984,6917.935,95.439,540.88,538.72,0.0
53740.0,STARLINK-4607,PAYLOAD,2023-11-27 10:44:02,15.08817952,0.000154,53.2191,44.5822,88.8476,271.2692,-0.00031796,-5.342e-05,0.0,0 STARLINK-4607,1 53740U 22107AS  23331.44725560 -.00005342  00000-0 -31796-3 0  9991,2 53740  53.2191  44.5822 0001540  88.8476 271.2692 15.08817952 68029,6917.948,95.439,540.878,538.747,0.0
53740.0,STARLINK-4607,PAYLOAD,2023-11-27 15:30:12,15.08818431,0.0001487,53.219,43.6896,75.3155,284.8002,-0.00028958,-4.891e-05,0.0,0 STARLINK-4607,1 53740U 22107AS  23331.64597719 -.00004891  00000-0 -28958-3 0  9990,2 53740  53.2190  43.6896 0001487  75.3155 284.8002 15.08818431 68831,6917.946,95.439,540.84,538.783,0.0
53740.0,STARLINK-4607,PAYLOAD,2023-11-28 12:10:10,15.08856404,0.0001798,53.2188,39.8262,62.2578,297.8596,-2.0799e-06,-3.21e-06,0.0,0 STARLINK-4607,1 53740U 22107AS  23332.50707141 -.00000321  00000-0 -20799-5 0  9999,2 53740  53.2188  39.8262 0001798  62.2578 297.8596 15.08856404 68183,6917.83,95.437,540.939,538.451,0.0
53740.0,STARLINK-4607,PAYLOAD,2023-11-28 13:45:33,15.08861733,0.0001944,53.2192,39.5301,59.4341,300.6843,8.7309e-05,1.102e-05,0.0,0 STARLINK-4607,1 53740U 22107AS  23332.57330644  .00001102  00000-0  87309-4 0  9991,2 53740  53.2192  39.5301 0001944  59.4341 300.6843 15.08861733 68974,6917.814,95.436,541.024,538.334,0.0
53740.0,STARLINK-4607,PAYLOAD,2023-11-29 10:25:35,15.08833429,0.0001946,53.219,35.661,77.3241,282.7969,0.00035334,5.339e-05,0.0,0 STARLINK-4607,1 53740U 22107AS  23333.43444024  .00005339  00000-0  35334-3 0  9991,2 53740  53.2190  35.6610 0001946  77.3241 282.7969 15.08833429 68321,6917.9,95.438,541.112,538.419,0.0
53740.0,STARLINK-4607,PAYLOAD,2023-12-01 03:45:36,15.08848117,0.0001741,53.2187,27.9344,96.3354,263.7836,-8.7953e-05,-1.688e-05,0.0,0 STARLINK-4607,1 53740U 22107AS  23335.15667813 -.00001688  00000-0 -87953-4 0  9995,2 53740  53.2187  27.9344 0001741  96.3354 263.7836 15.08848117 68584,6917.856,95.437,540.925,538.516,0.0
